CUTE-1 (CO-55)          
1 27844U 03031E   22250.02079330  .00000209  00000+0  11333-3 0  9991
2 27844  98.6808 256.4816 0008992 220.9438 139.1065 14.22488213995467
CUBESAT XI-IV (CO-57)   
1 27848U 03031J   22250.50183065  .00000160  00000+0  92105-4 0  9992
2 27848  98.6852 257.4574 0008711 235.2288 124.8070 14.22040646995341
CUBESAT XI-V            
1 28895U 05043F   22250.85402694  .00000803  00000+0  16054-3 0  9992
2 28895  98.1173  21.0156 0015520 239.5289 120.4381 14.64454461899474
CUTE-1.7+APD II (CO-65) 
1 32785U 08021C   22250.84644360  .00001905  00000+0  20382-3 0  9994
2 32785  97.6649 219.1298 0011657 327.6561  32.3941 14.89821289778826
AAUSAT-II               
1 32788U 08021F   22250.74519896  .00003625  00000+0  31135-3 0  9990
2 32788  97.5388 233.2031 0010551 199.3738 160.7085 14.98011177780759
DELFI-C3 (DO-64)        
1 32789U 08021G   22250.60357937  .00011103  00000+0  59088-3 0  9999
2 32789  97.3366 274.0058 0011171  48.9805 311.2392 15.15352349784363
SEEDS II (CO-66)        
1 32791U 08021J   22250.61915951  .00003026  00000+0  29601-3 0  9992
2 32791  97.6191 224.3175 0010771 277.7324  82.2673 14.93012913779452
SWISSCUBE               
1 35932U 09051B   22250.58465283  .00000522  00000+0  12714-3 0  9995
2 35932  98.5589 108.7824 0007961 147.0314 213.1381 14.56945733688054
BEESAT-1                
1 35933U 09051C   22250.81381637  .00000464  00000+0  11413-3 0  9992
2 35933  98.5526 110.5894 0005979 155.6840 204.4641 14.56952139688162
ITUPSAT1                
1 35935U 09051E   22250.81306490  .00000422  00000+0  10686-3 0  9993
2 35935  98.5626 110.6226 0008184 162.3303 197.8180 14.56054735687869
TISAT 1                 
1 36799U 10035E   22250.54955728  .00002799  00000+0  27362-3 0  9998
2 36799  98.1743 104.2135 0011569 178.8955 181.2290 14.93193013660019
M-CUBED & EXP-1 PRIME   
1 37855U 11061F   22250.70731052  .00013616  00000+0  57845-3 0  9991
2 37855 101.7190  53.4491 0150063 175.7841 184.4679 15.13608261593675
AEROCUBE 4.5A           
1 38767U 12048K   22250.32448342  .00003284  00000+0  23438-3 0  9996
2 38767  64.6641 213.6432 0171557 240.2584 118.1367 14.95331229163020
AEROCUBE 4.5B           
1 38768U 12048L   22250.80890074  .00004188  00000+0  26858-3 0  9996
2 38768  64.6665 164.7545 0157441 235.5095 123.1067 15.00280129163503
STRAND-1                
1 39090U 13009E   22250.76804461  .00000182  00000+0  78192-4 0  9992
2 39090  98.4015  86.7457 0009726  32.8367 327.3422 14.35321325499206
BRITE-AUSTRIA           
1 39091U 13009F   22250.54487315  .00000104  00000+0  51134-4 0  9995
2 39091  98.4032  85.7091 0011248  38.9458 321.2536 14.35296410499204
SOMP                    
1 39134U 13015E   22250.16764167  .00015101  00000+0  50827-3 0  9991
2 39134  64.8612 153.3278 0035347 266.6450  93.0638 15.30377636519352
BEESAT-3                
1 39135U 13015F   22250.12741921  .00012160  00000+0  47922-3 0  9995
2 39135  64.8648 191.5537 0039297 272.2211  87.4420 15.25199025518566
BEESAT-2                
1 39136U 13015G   22250.29566344  .00011271  00000+0  46611-3 0  9994
2 39136  64.8733 199.6641 0021754 294.8801  65.0067 15.24129063518384
NEE-01 PEGASO           
1 39151U 13018B   22250.53195357  .00001048  00000+0  14171-3 0  9990
2 39151  97.9956 355.9398 0016479 354.0010   6.1003 14.81095508505830
ESTCUBE 1               
1 39161U 13021C   22250.68482237  .00000248  00000+0  46117-4 0  9994
2 39161  97.9045 325.7754 0010082 151.5491 208.6221 14.73072842501573
POPACS 1                
1 39268U 13055D   22250.14545856  .00016765  00000+0  42192-3 0  9996
2 39268  80.9984 151.4990 0560905 313.5297  42.0556 14.52910542465158
POPACS 2                
1 39269U 13055E   22250.31923396  .00008980  00000+0  24219-3 0  9995
2 39269  81.0109 210.5980 0644008 106.6347 260.6527 14.33899192461912
POPACS 3                
1 39270U 13055F   22250.40160455  .00005139  00000+0  15570-3 0  9999
2 39270  81.0113 244.8406 0685968 203.4807 153.3635 14.22571197440284
ZACUBE-1 (TSHEPISOSAT)  
1 39417U 13066B   22250.44358713  .00001459  00000+0  18250-3 0  9993
2 39417  97.6445 218.2833 0058635 134.5839 226.0182 14.82556990475273
WNISAT-1                
1 39423U 13066H   22250.62592303  .00000385  00000+0  85666-4 0  9998
2 39423  97.7386 126.0090 0173058 240.9977 117.3767 14.53558060466390
TRITON-1                
1 39427U 13066M   22250.75099943  .00001901  00000+0  30203-3 0  9999
2 39427  97.8137 182.9788 0111770   2.4706 357.7029 14.69143138470869
DELFI-N3XT              
1 39428U 13066N   22250.72384621  .00003217  00000+0  49642-3 0  9996
2 39428  97.8142 181.5598 0117519  15.5597 344.9172 14.69460361470610
GOMX-1                  
1 39430U 13066Q   22250.81763699  .00000768  00000+0  14442-3 0  9993
2 39430  97.8012 153.2928 0149520 144.7233 216.3905 14.60330898468313
CUBEBUG-2 (LO-74)       
1 39440U 13066AA  22250.76027712  .00001175  00000+0  16514-3 0  9992
2 39440  97.7329 204.8957 0077208 223.7165 135.7916 14.77222996472435
NEE-02 KRYSAOR          
1 39441U 13066AB  22250.83474334  .00000839  00000+0  12362-3 0  9990
2 39441  97.7438 202.1037 0078967 237.8586 121.4945 14.75899008472181
FUNCUBE-1 (AO-73)       
1 39444U 13066AE  22250.87143779  .00001881  00000+0  22728-3 0  9998
2 39444  97.6325 221.1103 0057737 121.0947 239.5951 14.83682569473742
UWE-3                   
1 39446U 13066AG  22250.43705807  .00001194  00000+0  15930-3 0  9992
2 39446  97.6933 211.0004 0068247 180.6526 179.4608 14.79777237473179
AEROCUBE 5A             
1 39465U 13072D   22250.77024956  .00061143  00000+0  31218-2 0  9992
2 39465 120.4846 260.9274 0186116   8.2382 352.1679 15.02418953161964
AEROCUBE 5B             
1 39466U 13072E   22250.17115800  .00110016  00000+0  28241-2 0  9992
2 39466 120.4542 356.5334 0115501  26.3435 334.3461 15.31981063163183
BRITE-CA1 (TORONTO)     
1 40020U 14033L   22250.67103838  .00000385  00000+0  73296-4 0  9990
2 40020  97.7887  45.4933 0086738   2.2400 357.9176 14.67120837439713
DUCHIFAT-1              
1 40021U 14033M   22250.77076452  .00002844  00000+0  27693-3 0  9994
2 40021  98.0178 202.5142 0013708 123.8703 236.3822 14.93283182446989
NANOSATC-BR1            
1 40024U 14033Q   22250.77413580  .00002534  00000+0  25508-3 0  9993
2 40024  97.9891 195.4450 0012919 130.5868 229.6477 14.92061108446256
QB50P1                  
1 40025U 14033R   22250.75534767  .00001948  00000+0  20373-3 0  9996
2 40025  97.9621 188.8221 0013006 140.1656 220.0518 14.90779790446027
QB50P2                  
1 40032U 14033Y   22250.34306181  .00001842  00000+0  19582-3 0  9999
2 40032  97.9387 183.4727 0012443 138.9640 221.2516 14.90183814445811
PERSEUS-M2              
1 40037U 14033AD  22250.72881232  .00000769  00000+0  91421-4 0  9991
2 40037  97.8935 172.4838 0014542 162.2356 197.9371 14.87213893445355
PERSEUS-M1              
1 40039U 14033AF  22250.74528094  .00000754  00000+0  90631-4 0  9995
2 40039  97.8830 170.1093 0014437 161.3657 198.8090 14.86819868445234
POLYITAN-1              
1 40042U 14033AJ  22250.76688993  .00002738  00000+0  28329-3 0  9994
2 40042  97.9729 190.1397 0015281 133.2990 226.9504 14.90858040445919
TIGRISAT                
1 40043U 14033AK  22250.51100371  .00000914  00000+0  13923-3 0  9995
2 40043  97.6575  75.3553 0057723 250.2109 109.2871 14.75133430442024
AEROCUBE 6A             
1 40045U 14033AM  22250.53886600  .00000912  00000+0  13483-3 0  9994
2 40045  97.6641  84.4059 0055363 237.3029 122.2836 14.76526386441894
AEROCUBE 6B             
1 40046U 14033AN  22250.76597970  .00001806  00000+0  25739-3 0  9999
2 40046  97.6560  83.0460 0054362 234.4537 125.1599 14.76956378441937
UKUBE-1                 
1 40074U 14037F   22250.66206477  .00001730  00000+0  20670-3 0  9997
2 40074  98.3686 135.5943 0005249  33.9608 326.1733 14.85630119442278
BRITE-PL2 (HEWELIUSZ)   
1 40119U 14049B   22250.74013760  .00000835  00000+0  10342-3 0  9990
2 40119  97.8844 345.5306 0016536 337.4081  22.6404 14.85259998436225
FIREBIRD 4              
1 40378U 15003C   22250.81277903  .00017999  00000+0  50540-3 0  9990
2 40378  99.0881 134.4211 0097237 105.0724 256.1296 15.31934961421024
GRIFEX                  
1 40379U 15003D   22250.85990633  .00010942  00000+0  37452-3 0  9995
2 40379  99.1010 119.4582 0113143 150.0292 210.7482 15.24481618420175
CP10 (EXOCUBE)          
1 40380U 15003E   22250.56102709  .00007625  00000+0  28761-3 0  9991
2 40380  99.1119 111.5019 0121336 176.5333 183.6767 15.20750747419638
TIANWANG 1A (TW-1A)     
1 40928U 15051D   22250.89374225  .00067513  00000+0  64835-3 0  9996
2 40928  97.0344 273.1674 0008757  83.4615  39.1219 15.66351026391111
EXACTVIEW 9             
1 40936U 15052G   22250.67914264  .00001561  00000+0  12635-3 0  9997
2 40936   6.0034 306.6524 0010855 242.6819 117.2203 14.77272783375395
AEROCUBE 5C             
1 40965U 15058B   22250.58496307  .00000755  00000+0  10257-3 0  9990
2 40965  64.7769 202.0908 0182345 173.4927 186.8612 14.75822805161082
AEROCUBE 7              
1 40966U 15058C   22250.28042913  .00001055  00000+0  13459-3 0  9999
2 40966  64.7770 199.9888 0180280 173.2360 187.1244 14.76423186161042
ATHENOXAT 1             
1 41168U 15077C   22250.93010605  .00015491  00000+0  61102-3 0  9997
2 41168  14.9851 198.3024 0010024 308.0614  95.4792 15.22659340372898
GALASSIA                
1 41170U 15077E   22250.10369157  .00011777  00000+0  47170-3 0  9990
2 41170  14.9870 196.0105 0010510 335.4200  24.5621 15.21629088372677
VELOX-II                
1 41171U 15077F   22250.28658311  .00008298  00000+0  37517-3 0  9991
2 41171  14.9908 272.3277 0007710 170.7842 189.2621 15.16705348372057
HORYU-4                 
1 41340U 16012D   22250.89312146  .00003365  00000+0  23300-3 0  9994
2 41340  31.0037 192.4722 0013331 300.2660  59.6657 15.03705813360148
